ORBCOMM FM115           
1 41186U 15081H   25158.89563883  .00000556  00000+0  14306-3 0  9998
2 41186  46.9989  83.7461 0001105 334.9450  25.1383 14.62488450506411
ORBCOMM FM108           
1 41187U 15081J   25158.98871240  .00000714  00000+0  19002-3 0  9992
2 41187  47.0033 150.4111 0003661 276.8454  83.2015 14.58155909505539
ORBCOMM FM116           
1 41189U 15081L   25158.66960109  .00000609  00000+0  16744-3 0  9995
2 41189  47.0016 240.5317 0001457 135.5179 224.5824 14.58165730504267
